NORAD_CAT_ID,OBJECT_NAME,OBJECT_TYPE,EPOCH,MEAN_MOTION,ECCENTRICITY,INCLINATION,RA_OF_ASC_NODE,ARG_OF_PERICENTER,MEAN_ANOMALY,BSTAR,MEAN_MOTION_DOT,MEAN_MOTION_DDOT,TLE_LINE0,TLE_LINE1,TLE_LINE2,SEMIMAJOR_AXIS,PERIOD,APOGEE,PERIGEE,DECAYED
52379.0,STARLINK-3800,PAYLOAD,2024-08-14 18:12:01,15.08828859,0.0001511,53.215,236.6206,90.6354,269.4811,-6.7197e-05,-1.357e-05,0.0,0 STARLINK-3800,1 52379U 22045BA  24227.75835217 -.00001357  00000-0 -67197-4 0  9996,2 52379  53.2150 236.6206 0001511  90.6354 269.4811 15.08828859129584,6917.914,95.438,540.825,538.734,0.0
52379.0,STARLINK-3800,PAYLOAD,2024-08-15 06:55:06,15.08836233,0.0001447,53.2144,234.2418,89.2681,270.8477,0.00025422,3.76e-05,0.0,0 STARLINK-3800,1 52379U 22045BA  24228.28827460  .00003760  00000-0  25422-3 0  9998,2 52379  53.2144 234.2418 0001447  89.2681 270.8477 15.08836233129669,6917.892,95.438,540.758,538.756,0.0
52379.0,STARLINK-3800,PAYLOAD,2024-08-15 18:02:48,15.08842778,0.0001511,53.2146,232.1606,86.9611,273.1554,0.0004931,7.569e-05,0.0,0 STARLINK-3800,1 52379U 22045BA  24228.75195587  .00007569  00000-0  49310-3 0  9991,2 52379  53.2146 232.1606 0001511  86.9611 273.1554 15.08842778129737,6917.872,95.437,540.782,538.692,0.0
52379.0,STARLINK-3800,PAYLOAD,2024-08-16 06:45:53,15.08858719,0.0001501,53.2142,229.7815,86.7641,273.3523,0.00068436,0.00010626,0.0,0 STARLINK-3800,1 52379U 22045BA  24229.28187101  .00010626  00000-0  68436-3 0  9991,2 52379  53.2142 229.7815 0001501  86.7641 273.3523 15.08858719129816,6917.823,95.436,540.727,538.65,0.0
52379.0,STARLINK-3800,PAYLOAD,2024-08-17 05:01:17,15.08853556,0.0001386,53.2134,225.6157,84.9328,275.1823,0.0001807,2.59e-05,0.0,0 STARLINK-3800,1 52379U 22045BA  24230.20922732  .00002590  00000-0  18070-3 0  9992,2 52379  53.2134 225.6157 0001386  84.9328 275.1823 15.08853556129956,6917.839,95.437,540.663,538.745,0.0
52379.0,STARLINK-3800,PAYLOAD,2024-08-18 04:52:04,15.08839424,0.0001551,53.2147,221.1574,90.0134,270.1036,1.4552e-05,-5.6e-07,0.0,0 STARLINK-3800,1 52379U 22045BA  24231.20283062 -.00000056  00000-0  14552-4 0  9997,2 52379  53.2147 221.1574 0001551  90.0134 270.1036 15.08839424130109,6917.882,95.438,540.82,538.674,0.0
52379.0,STARLINK-3800,PAYLOAD,2024-08-18 09:38:13,15.08838787,0.0001493,53.2139,220.2625,86.974,273.1422,-2.4857e-05,-6.84e-06,0.0,0 STARLINK-3800,1 52379U 22045BA  24231.40155083 -.00000684  00000-0 -24857-4 0  9997,2 52379  53.2139 220.2625 0001493  86.9740 273.1422 15.08838787130135,6917.884,95.438,540.782,538.716,0.0
52379.0,STARLINK-3800,PAYLOAD,2024-08-19 09:29:01,15.08833735,0.0001432,53.2141,215.8039,100.1826,259.9328,7.7365e-06,-1.65e-06,0.0,0 STARLINK-3800,1 52379U 22045BA  24232.39515608 -.00000165  00000-0  77365-5 0  9995,2 52379  53.2141 215.8039 0001432 100.1826 259.9328 15.08833735130285,6917.9,95.438,540.755,538.774,0.0
52379.0,STARLINK-3800,PAYLOAD,2024-08-20 07:44:25,15.08842694,0.0001385,53.214,211.6405,95.1106,265.0044,0.00015587,2.194e-05,0.0,0 STARLINK-3800,1 52379U 22045BA  24233.32251427  .00002194  00000-0  15587-3 0  9994,2 52379  53.2140 211.6405 0001385  95.1106 265.0044 15.08842694130429,6917.872,95.437,540.695,538.779,0.0
52379.0,STARLINK-3800,PAYLOAD,2024-08-21 07:35:12,15.08846011,0.0001416,53.2146,207.1806,93.0543,267.0611,0.00019158,2.763e-05,0.0,0 STARLINK-3800,1 52379U 22045BA  24234.31611380  .00002763  00000-0  19158-3 0  9992,2 52379  53.2146 207.1806 0001416  93.0543 267.0611 15.08846011130572,6917.862,95.437,540.707,538.747,0.0
